#aV2021  8 28  0  0  0.00000000     288 DD+AD WGS84 FIT  NGA
## 2172 518400.00000000   300.00000000 59454 0.0000000000000
+   32     1  2  3  4  5  6  7  8  9 10 11 12 13 14 15 16 17
+         18 19 20 21 22 23 24 25 26 27 28 29 30 31 32  0  0
+          0  0  0  0  0  0  0  0  0  0  0  0  0  0  0  0  0
+          0  0  0  0  0  0  0  0  0  0  0  0  0  0  0  0  0
+          0  0  0  0  0  0  0  0  0  0  0  0  0  0  0  0  0
++         2  2  2  2  2  2  2  2  2  2  2  2  2  2  2  2  2
++         2  2  2  2  2  2  2  2  2  2  2  2  2  2  2  0  0
++         0  0  0  0  0  0  0  0  0  0  0  0  0  0  0  0  0
++         0  0  0  0  0  0  0  0  0  0  0  0  0  0  0  0  0
++         0  0  0  0  0  0  0  0  0  0  0  0  0  0  0  0  0
%c cc cc ccc ccc cccc cccc cccc cccc ccccc ccccc ccccc ccccc
%c cc cc ccc ccc cccc cccc cccc cccc ccccc ccccc ccccc ccccc
%f  0.0000000  0.000000000  0.00000000000  0.000000000000000
%f  0.0000000  0.000000000  0.00000000000  0.000000000000000
%i    0    0    0    0      0      0      0      0         0
%i    0    0    0    0      0      0      0      0         0
/*      NGA, ST. LOUIS,MO.                                  
/*   EPHEMERIS COMPUTED FROM 2 DAYS OF DATA                 
/*   EPOCHA v7 SMOOTHER                                     
/*   G2139 IERS2010 SATIGS SATAPC                           
*  2021  8 28 14 45  0.00000000
P  1  21150.889426  14327.511444  -8151.763492    584.215683                    
V  1  -9736.074850  -2209.365998 -29836.390538     -0.112140                    
P  2    219.052294 -15869.528400  21944.730791   -629.070102                    
V  2  25302.731523   7291.049951   5247.867360     -0.022597                    
P  3  12113.138415  19633.240262  13157.139792   -269.865107                    
V  3    594.079359  16917.948047 -25489.535770     -0.130762                    
P  4  13913.548107   8053.355065  21158.504083   -204.203806                    
V  4 -21121.175919  16575.879722   7517.624605     -0.001944                    
P  5  -6298.156876 -25648.963589  -1916.968539    -52.579216                    
V  5   2578.901977  -2785.784513  31661.560105     -0.012392                    
P  6  13594.721965  -9511.415002  20809.974873     63.952765                    
V  6  24157.738794  10200.070477 -11095.191602      0.068136                    
P  7  25474.154974   5675.859222  -5816.341031    234.226286                    
V  7   6230.724424   5340.701894  30073.460239      0.075573                    
P  8   3846.147789  15685.916184 -21038.350300    -34.340083                    
V  8 -21094.931134  16445.819935   8711.907862     -0.014556                    
P  9  21139.977992  -3054.356010  15737.217786   -359.891804                    
V  9 -14134.111168  14457.925782  21677.169031     -0.008411                    
P 10 -12470.073071  11089.645290 -20477.554007   -191.698281                    
V 10  -5061.044928 -25841.837044 -11122.807457     -0.077713                    
P 11   2029.588087 -15559.181884  21415.833250     38.993449                    
V 11  24957.957259  10900.239832   5540.716561      0.030915                    
P 12 -10369.259178 -20809.313533  12712.584129    -89.334089                    
V 12    651.968173 -16581.783561 -25969.939160     -0.054087                    
P 13   5221.875836 -18183.523017 -18722.395750    177.599867                    
V 13  20845.252672 -10966.031409  16732.528252      0.052789                    
P 14  13102.706087 -11253.472085 -20165.161527     13.683947                    
V 14   3899.151249  25359.401748 -11669.457252     -0.084110                    
P 15  -6513.640854 -15560.541749 -20836.009455   -125.158497                    
V 15  18811.044804 -17667.910696   7798.092418      0.027014                    
P 16   -254.416586  26142.074837   2726.907592   -381.203691                    
V 16  -3072.062058  -3624.037830  32059.544564     -0.062982                    
P 17  22759.749041 -13069.749932  -3663.907644    496.251121                    
V 17  -2981.848961   4758.244036 -31760.549588      0.057589                    
P 18 -24879.421601  -3915.245464  -8586.873220    328.396411                    
V 18  -9149.821017  -6264.256709  29325.307549     -0.038500                    
P 19  20172.758522 -16478.893408   4469.963551     45.542051                    
V 19   6333.740365  -1303.692572 -31611.565194      0.049637                    
P 20     60.646737 -24699.841829  10076.060613    519.417504                    
V 20   6552.258017  11361.084408  27464.478397     -0.001945                    
P 21  16307.884431  15293.068665 -14040.895677    139.714072                    
V 21 -18606.097205  -3517.356707 -23733.361243      0.020627                    
P 22  10794.888648  23654.314952   6105.234211   -527.103113                    
V 22  -1260.338414   8091.171529 -29779.703942      0.093450                    
P 23 -15470.185170  -1695.139398 -21554.612105     64.837066                    
V 23  -4437.804930 -26929.494803   5242.078133     -0.049969                    
P 24 -18456.219385 -15173.370354 -12274.559755    220.838398                    
V 24  15199.087221   1936.290799 -25389.464657      0.100206                    
P 25 -15051.991141 -10856.331454  18835.687656    198.833095                    
V 25  -2445.977544 -24301.109332 -15479.142229      0.063951                    
P 26  -6262.765517  21376.567049  14196.542883    127.839234                    
V 26  -6350.755001 -17377.800055  23545.917187      0.043199                    
P 27  -6540.092612  19652.675753 -16591.178757   -184.893950                    
V 27 -17335.286272  11697.153703  21271.987053     -0.054841                    
P 28  10272.223812 -17681.359034 -16508.331477    511.610693                    
V 28   2924.535047  21777.762424 -20635.740578     -0.069476                    
P 29 -19974.119234   -395.299744  17487.377570   -403.154274                    
V 29  17601.599528 -13618.916798  19681.697069     -0.057642                    
P 30  20942.821664  -3968.533470 -15920.895659   -467.041086                    
V 30  17888.955879   9906.355086  20732.114582     -0.040002                    
P 31 -12342.888060  10825.646843  20870.298435   -136.738808                    
V 31 -24345.681695 -10832.679543  -8280.385160     -0.020534                    
P 32 -21047.850644  15983.932715  -1250.619432      4.268332                    
V 32   -588.056436  -3472.572703 -31753.016568     -0.030355                    
EOF
